API VERSION: 1.0
API SOURCE: NASA/JPL Horizons API

*******************************************************************************
JPL/HORIZONS                     (2005 VL1)                2024-Jun-26 07:52:16
Rec #:50030445 (+COV) Soln.date: 2022-Dec-20_14:27:33     # obs: 79 (2005-2021)
 
IAU76/J2000 helio. ecliptic osc. elements (au, days, deg., period=Julian yrs):
 
  EPOCH=  2457737.5 ! 2016-Dec-15.00 (TDB)         Residual RMS= .13657
   EC= .2253857220496932   QR= .6906799042446253   TP= 2457883.602235191
   OM= 39.81232963001098   W=  226.4606875105024   IN= .2472171504411504
   A= .8916436527250973    MA= 188.9693483046568   ADIST= 1.092607401205569
   PER= .84197             N= 1.170623101          ANGMOM= .015825457
   DAN= 1.0019             DDN= .73261             L= 266.2727508
   B= -.1792079            MOID= .00019191         TP= 2017-May-10.1022351910
 
Asteroid physical parameters (km, seconds, rotational period in hours):
   GM= n.a.                RAD= n.a.               ROTPER= n.a.
   H= 26.45                G= .150                 B-V= n.a.
                           ALBEDO= n.a.            STYP= n.a.

Asteroid non-gravitational force model (AMRAT= m^2/kg;A1,A2,A3=au/d^2;R0=au):
   AMRAT=  0.
   A1= -8.298571407795E-10 A2= -8.320601773448E-13 A3= -2.414488699287E-11
 Non-standard or simulated/proxy model:
   ALN=  1.            NK=  0.       NM=  2.       NN=  0.       R0=  1.

ASTEROID comments: 
1: soln ref.= JPL#24, OCC=4
2: source=ORB; Nongravitational accels. using nonstandard g(r) = (1 au/ r)^2
*******************************************************************************


*******************************************************************************
Ephemeris / WWW_USER Wed Jun 26 07:52:17 2024 Pasadena, USA      / Horizons    
*******************************************************************************
Target body name: (2005 VL1)                      {source: JPL#24}
Center body name: Earth (399)                     {source: DE441}
Center-site name: GEOCENTRIC
*******************************************************************************
Start time      : A.D. 2024-Jan-01 00:00:00.0000 UT      
Stop  time      : A.D. 2044-Jan-01 00:00:00.0000 UT      
Step-size       : 1440 minutes
*******************************************************************************
Target pole/equ : undefined
Target radii    : undefined                                                    
Center geodetic : 0.0, 0.0, -6378.137             {E-lon(deg),Lat(deg),Alt(km)}
Center cylindric: 0.0, 0.0, 0.0                   {E-lon(deg),Dxy(km),Dz(km)}
Center pole/equ : ITRF93                          {East-longitude positive}
Center radii    : 6378.137, 6378.137, 6356.752 km {Equator_a, b, pole_c}       
Target primary  : Sun
Vis. interferer : MOON (R_eq= 1737.400) km        {source: DE441}
Rel. light bend : Sun                             {source: DE441}
Rel. lght bnd GM: 1.3271E+11 km^3/s^2                                          
Small-body perts: Yes                             {source: SB441-N16}
Atmos refraction: NO (AIRLESS)
RA format       : HMS
Time format     : CAL 
Calendar mode   : Mixed Julian/Gregorian
EOP file        : eop.240624.p240917                                           
EOP coverage    : DATA-BASED 1962-JAN-20 TO 2024-JUN-24. PREDICTS-> 2024-SEP-16
Units conversion: 1 au= 149597870.700 km, c= 299792.458 km/s, 1 day= 86400.0 s 
Table cut-offs 1: Elevation (-90.0deg=NO ),Airmass (>38.000=NO), Daylight (NO )
Table cut-offs 2: Solar elongation (  0.0,180.0=NO ),Local Hour Angle( 0.0=NO )
Table cut-offs 3: RA/DEC angular rate (     0.0=NO )                           
*******************************************************************************
Initial IAU76/J2000 heliocentric ecliptic osculating elements (au, days, deg.):
  EPOCH=  2457737.5 ! 2016-Dec-15.00 (TDB)         Residual RMS= .13657        
   EC= .2253857220496932   QR= .6906799042446253   TP= 2457883.602235191       
   OM= 39.81232963001098   W=  226.4606875105024   IN= .2472171504411504       
  Equivalent ICRF heliocentric cartesian coordinates (au, au/d):
   X=-3.994274659800397E-02  Y= 9.987854952077390E-01  Z= 4.370852088989626E-01
  VX=-1.448044261131514E-02 VY=-8.942261598397332E-04 VZ=-3.475554097658720E-04
Asteroid physical parameters (km, seconds, rotational period in hours):        
   GM= n.a.                RAD= n.a.               ROTPER= n.a.                
   H= 26.45                G= .150                 B-V= n.a.                   
                           ALBEDO= n.a.            STYP= n.a.                  
Asteroid non-gravitational force model (AMRAT= m^2/kg;A1,A2,A3=au/d^2;R0=au):  
   AMRAT=  0.                                                                  
   A1= -8.298571407795E-10 A2= -8.320601773448E-13 A3= -2.414488699287E-11     
 Non-standard or simulated/proxy model:                                        
   ALN=  1.            NK=  0.       NM=  2.       NN=  0.       R0=  1.       
**********************************************************************************************************************************************
 Date__(UT)__HR:MN     R.A._____(ICRF)_____DEC  dRA*cosD d(DEC)/dt    APmag   S-brt             delta      deldot     S-O-T /r     S-T-O  Cnst
**********************************************************************************************************************************************
$$SOE
 2037-Nov-14 00:00     02 47 54.32 +17 32 50.3  -299.324  -93.6514   20.571    n.a.  0.05119652983037   4.9867185  173.2945 /T    6.3764   Ari
 2037-Nov-15 00:00     02 40 01.95 +16 56 33.6  -265.789  -86.3278   20.820    n.a.  0.05412295551538   5.1442615  170.3550 /T    9.1469   Ari
 2037-Nov-16 00:00     02 33 03.48 +16 23 12.6  -236.373  -79.2373   21.044    n.a.  0.05713548087817   5.2853064  167.6084 /T   11.7194   Ari
 2037-Nov-17 00:00     02 26 52.07 +15 52 39.9  -210.528  -72.5043   21.251    n.a.  0.06022535627936   5.4124693  165.0421 /T   14.1074   Ari
 2037-Nov-18 00:00     02 21 21.84 +15 24 45.6  -187.767  -66.1911   21.444    n.a.  0.06338520842841   5.5279135  162.6385 /T   16.3288   Ari
 2037-Nov-19 00:00     02 16 27.76 +14 59 18.9  -167.662  -60.3204   21.625    n.a.  0.06660880084092   5.6334248  160.3801 /T   18.4011   Ari
 2037-Nov-20 00:00     02 12 05.55 +14 36 09.2  -149.844  -54.8898   21.796    n.a.  0.06989083637082   5.7304810  158.2514 /T   20.3400   Ari
 2037-Nov-21 00:00     02 08 11.52 +14 15 05.7  -133.995  -49.8826   21.958    n.a.  0.07322679690315   5.8203109  156.2385 /T   22.1596   Ari
 2037-Nov-22 00:00     02 04 42.52 +13 55 58.4  -119.847  -45.2740   22.112    n.a.  0.07661281413567   5.9039431  154.3292 /T   23.8721   Ari
 2037-Nov-23 00:00     02 01 35.85 +13 38 38.1  -107.167  -41.0350   22.260    n.a.  0.08004556508723   5.9822427  152.5131 /T   25.4882   Ari
 2037-Nov-24 00:00     01 58 49.18 +13 22 56.0  -95.7596  -37.1353   22.401    n.a.  0.08352218621886   6.0559393  150.7807 /T   27.0172   Ari
 2037-Nov-25 00:00     01 56 20.49 +13 08 44.4  -85.4551  -33.5447   22.537    n.a.  0.08704020072868   6.1256449  149.1241 /T   28.4673   Ari
 2037-Nov-26 00:00     01 54 08.04 +12 55 56.0  -76.1086  -30.2338   22.667    n.a.  0.09059745462205   6.1918669  147.5362 /T   29.8457   Ari
 2037-Nov-27 00:00     01 52 10.32 +12 44 24.4  -67.5956  -27.1749   22.793    n.a.  0.09419205842738   6.2550150  146.0107 /T   31.1586   Ari
 2037-Nov-28 00:00     01 50 26.03 +12 34 03.9  -59.8086  -24.3424   22.914    n.a.  0.09782233266646   6.3154073  144.5424 /T   32.4115   Ari
 2037-Nov-29 00:00     01 48 54.03 +12 24 49.3  -52.6554  -21.7125   23.031    n.a.  0.10148675612893   6.3732744  143.1264 /T   33.6092   Ari
 2037-Nov-30 00:00     01 47 33.32 +12 16 35.8  -46.0565  -19.2637   23.144    n.a.  0.10518391652046   6.4287634  141.7588 /T   34.7559   Ari
 2037-Dec-01 00:00     01 46 23.04 +12 09 19.5  -39.9439  -16.9767   23.253    n.a.  0.10891246330452   6.4819417  140.4358 /T   35.8553   Psc
 2037-Dec-02 00:00     01 45 22.43 +12 02 56.5  -34.2600  -14.8344   23.359    n.a.  0.11267106291265   6.5328015  139.1542 /T   36.9107   Psc
 2037-Dec-03 00:00     01 44 30.82 +11 57 23.6  -28.9559  -12.8219   23.462    n.a.  0.11645835735454   6.5812677  137.9113 /T   37.9251   Psc
 2037-Dec-04 00:00     01 43 47.60 +11 52 37.8  -23.9914  -10.9264   23.562    n.a.  0.12027292869079   6.6272107  136.7046 /T   38.9010   Psc
 2037-Dec-05 00:00     01 43 12.26 +11 48 36.4  -19.3334  -9.13779   23.659    n.a.  0.12411327329512   6.6704674  135.5317 /T   39.8408   Psc
 2037-Dec-06 00:00     01 42 44.29 +11 45 16.8  -14.9558  -7.44757   23.753    n.a.  0.12797779019692   6.7108687  134.3908 /T   40.7466   Psc
 2037-Dec-07 00:00     01 42 23.27 +11 42 36.9  -10.8373  -5.84932   23.845    n.a.  0.13186478600382   6.7482682  133.2798 /T   41.6205   Psc
 2037-Dec-08 00:00     01 42 08.78 +11 40 34.5  -6.96060  -4.33794   23.934    n.a.  0.13577249506640   6.7825649  132.1971 /T   42.4642   Psc
 2037-Dec-09 00:00     01 42 00.43 +11 39 07.5  -3.31060  -2.90921   24.020    n.a.  0.13969910939221   6.8137137  131.1411 /T   43.2795   Psc
 2037-Dec-10 00:00     01 41 57.86 +11 38 14.0  0.126398  -1.55939   24.105    n.a.  0.14364281065121   6.8417225  130.1101 /T   44.0680   Psc
 2037-Dec-11 00:00     01 42 00.74 +11 37 52.1  3.363540  -0.28485   24.187    n.a.  0.14760179751217   6.8666398  129.1029 /T   44.8314   Psc
 2037-Dec-12 00:00     01 42 08.75 +11 38 00.0  6.413613  0.918040   24.267    n.a.  0.15157430461236   6.8885390  128.1179 /T   45.5710   Psc
 2037-Dec-13 00:00     01 42 21.59 +11 38 36.1  9.289035  2.052921   24.345    n.a.  0.15555861282057   6.9075047  127.1540 /T   46.2882   Psc
 2037-Dec-14 00:00     01 42 39.00 +11 39 38.8  12.00171  3.123417   24.421    n.a.  0.15955305271553   6.9236234  126.2099 /T   46.9843   Psc
 2037-Dec-15 00:00     01 43 00.71 +11 41 06.5  14.56289  4.133056   24.495    n.a.  0.16355600404880   6.9369785  125.2846 /T   47.6606   Psc
 2037-Dec-16 00:00     01 43 26.49 +11 42 57.8  16.98303  5.085207   24.567    n.a.  0.16756589378999   6.9476502  124.3769 /T   48.3181   Psc
 2037-Dec-17 00:00     01 43 56.11 +11 45 11.5  19.27183  5.983039   24.637    n.a.  0.17158119470963   6.9557174  123.4860 /T   48.9578   Psc
